{
    "links": {
        "self": "http://www.neowsapp.com/rest/v1/neo/3762124?api_key=iIulBulltgU6a56xZRHN4H3l9WmuAYTsLGpBGhQ2"
    },
    "id": "3762124",
    "neo_reference_id": "3762124",
    "name": "(2016 UY41)",
    "designation": "2016 UY41",
    "nasa_jpl_url": "http://ssd.jpl.nasa.gov/sbdb.cgi?sstr=3762124",
    "absolute_magnitude_h": 23.9,
    "estimated_diameter": {
        "kilometers": {
            "estimated_diameter_min": 0.04411182,
            "estimated_diameter_max": 0.0986370281
        },
        "meters": {
            "estimated_diameter_min": 44.1118199997,
            "estimated_diameter_max": 98.6370281305
        },
        "miles": {
            "estimated_diameter_min": 0.0274098057,
            "estimated_diameter_max": 0.0612901888
        },
        "feet": {
            "estimated_diameter_min": 144.7238235278,
            "estimated_diameter_max": 323.6123073718
        }
    },
    "is_potentially_hazardous_asteroid": false,
    "close_approach_data": [
        {
            "close_approach_date": "2016-10-27",
            "close_approach_date_full": "2016-Oct-27 18:02",
            "epoch_date_close_approach": 1477591320000,
            "relative_velocity": {
                "kilometers_per_second": "12.3023212214",
                "kilometers_per_hour": "44288.3563969486",
                "miles_per_hour": "27519.0623400928"
            },
            "miss_distance": {
                "astronomical": "0.1707895355",
                "lunar": "66.4371293095",
                "kilometers": "25549750.729089385",
                "miles": "15875878.928768113"
            },
            "orbiting_body": "Earth"
        }
    ],
    "orbital_data": {
        "orbit_id": "4",
        "orbit_determination_date": "2017-04-06 08:22:42",
        "first_observation_date": "2016-10-27",
        "last_observation_date": "2016-11-07",
        "data_arc_in_days": 11,
        "observations_used": 31,
        "orbit_uncertainty": "8",
        "minimum_orbit_intersection": ".169199",
        "jupiter_tisserand_invariant": "3.986",
        "epoch_osculation": "2457690.5",
        "eccentricity": ".3357530240821321",
        "semi_major_axis": "1.748154955098576",
        "inclination": "22.46359187694749",
        "ascending_node_longitude": "216.4569564690065",
        "orbital_period": "844.2446460822837",
        "perihelion_distance": "1.161206642360065",
        "perihelion_argument": "173.2375337655771",
        "aphelion_distance": "2.335103267837086",
        "perihelion_time": "2457685.342092282067",
        "mean_anomaly": "2.199417890385892",
        "mean_motion": ".4264166810776706",
        "equinox": "J2000",
        "orbit_class": {
            "orbit_class_type": "AMO",
            "orbit_class_description": "Near-Earth asteroid orbits similar to that of 1221 Amor",
            "orbit_class_range": "1.017 AU < q (perihelion) < 1.3 AU"
        }
    },
    "is_sentry_object": false
}